{
"type": "FeatureCollection",
"name": "mapa_unificado",
"crs": { "type": "name", "properties": { "name": "urn:ogc:def:crs:OGC:1.3:CRS84" } },
"features": [
{ "type": "Feature", "properties": { "id": 10, "capa_origen": "10A" }, "geometry": { "type": "Polygon", "coordinates": [ [ [ -77.010125058031306, -12.109368630440088 ], [ -77.010554152882023, -12.107881101624251 ], [ -77.009324080976626, -12.108710685002313 ], [ -77.008165524879672, -12.108667775517242 ], [ -77.007893764807548, -12.108810807134148 ], [ -77.007622004735424, -12.109196992499799 ], [ -77.006506358123545, -12.109196992499799 ], [ -77.006263204374804, -12.112057624837945 ], [ -77.00973887266565, -12.112286475424996 ], [ -77.009896207444243, -12.109468752571923 ], [ -77.0099677232527, -12.109368630440088 ], [ -77.010125058031306, -12.109368630440088 ] ] ] } },
{ "type": "Feature", "properties": { "id": 10, "capa_origen": "10B" }, "geometry": { "type": "Polygon", "coordinates": [ [ [ -77.001085459842756, -12.105835749502475 ], [ -77.000684971315422, -12.108610562870478 ], [ -77.000985337710915, -12.108667775517242 ], [ -77.001142672489522, -12.109196992499799 ], [ -77.001485948370103, -12.109583177865447 ], [ -77.001929346382511, -12.109683299997283 ], [ -77.003845970049071, -12.10825298382821 ], [ -77.004518218648528, -12.109039657721199 ], [ -77.00543362099674, -12.108410318606808 ], [ -77.006105869596198, -12.109282811469942 ], [ -77.006363326506644, -12.109125476691345 ], [ -77.007607701573733, -12.109154083014726 ], [ -77.00767921738219, -12.108910929265983 ], [ -77.007936674292623, -12.108653472355551 ], [ -77.007936674292623, -12.107494916258601 ], [ -77.005962837979297, -12.106264844353198 ], [ -77.005877019009148, -12.105821446340785 ], [ -77.001085459842756, -12.105835749502475 ] ] ] } },
{ "type": "Feature", "properties": { "id": 10, "capa_origen": "10C" }, "geometry": { "type": "Polygon", "coordinates": [ [ [ -77.00646344863847, -12.109182689338107 ], [ -77.006277507536495, -12.109168386176417 ], [ -77.006105869596198, -12.109311417793323 ], [ -77.00543362099674, -12.10846753125357 ], [ -77.004518218648528, -12.109096870367964 ], [ -77.003831666887379, -12.108295893313283 ], [ -77.001957952705894, -12.109697603158974 ], [ -77.001757708442227, -12.109726209482355 ], [ -77.001485948370103, -12.109583177865447 ], [ -77.000971034549224, -12.108925232427675 ], [ -77.000642061830348, -12.10882511029584 ], [ -77.000270179626384, -12.111742955280748 ], [ -77.006248901213112, -12.112014715352872 ], [ -77.00646344863847, -12.109182689338107 ] ] ] } },
{ "type": "Feature", "properties": { "id": 11, "capa_origen": "11A" }, "geometry": { "type": "Polygon", "coordinates": [ [ [ -77.000828002932323, -12.107151640378023 ], [ -76.998053189564317, -12.106937092952663 ], [ -76.997910157947416, -12.107280368833241 ], [ -76.997166393539501, -12.10785249530087 ], [ -76.994219942231197, -12.111299557268337 ], [ -77.000127148009483, -12.111728652119059 ], [ -77.000828002932323, -12.107151640378023 ] ] ] } },
{ "type": "Feature", "properties": { "id": 11, "capa_origen": "11B" }, "geometry": { "type": "Polygon", "coordinates": [ [ [ -76.998016145212006, -12.106962606827992 ], [ -76.995753899811831, -12.106761777215439 ], [ -76.995420600633224, -12.106793519994355 ], [ -76.992944663877836, -12.107809288919643 ], [ -76.994261989202812, -12.110983566811166 ], [ -76.994382611762688, -12.111043878091106 ], [ -76.996069803445224, -12.109173397204399 ], [ -76.99712759788369, -12.107856443128501 ], [ -76.997910365768163, -12.107253500298571 ], [ -76.998016145212006, -12.106962606827992 ] ] ] } },
{ "type": "Feature", "properties": { "id": 11, "capa_origen": "11C" }, "geometry": { "type": "Polygon", "coordinates": [ [ [ -76.992938533661061, -12.107821386141351 ], [ -76.992562167169964, -12.107988919468166 ], [ -76.993820931159675, -12.111130376761201 ], [ -76.994297902780559, -12.111166149632767 ], [ -76.994385347577719, -12.111048894109301 ], [ -76.994256167763737, -12.110985297893183 ], [ -76.992938533661061, -12.107821386141351 ] ] ] } },
{ "type": "Feature", "properties": { "id": 12, "capa_origen": "12A" }, "geometry": { "type": "Polygon", "coordinates": [ [ [ -76.989991879842776, -12.10309284327175 ], [ -76.989422902840829, -12.103406761617645 ], [ -76.993091823508493, -12.11045684446923 ], [ -76.993065663646334, -12.110777302780667 ], [ -76.992804065024757, -12.111051981333326 ], [ -76.993804679752301, -12.111097761092102 ], [ -76.989991879842776, -12.10309284327175 ] ] ] } },
{ "type": "Feature", "properties": { "id": 12, "capa_origen": "12B" }, "geometry": { "type": "Polygon", "coordinates": [ [ [ -76.992911009866035, -12.110131434351645 ], [ -76.989363571826246, -12.103206730576561 ], [ -76.989193399521753, -12.103285271640173 ], [ -76.988918505799106, -12.103533985008276 ], [ -76.988826874558228, -12.10386123943999 ], [ -76.988486529949256, -12.107683571202418 ], [ -76.987989103213039, -12.10785374350691 ], [ -76.987386955058682, -12.107814472975104 ], [ -76.986666995308909, -12.107893014038716 ], [ -76.984873641023114, -12.107788292620567 ], [ -76.984598747300481, -12.110511049492434 ], [ -76.992740837561541, -12.111047746760446 ], [ -76.993015731284174, -12.110877574455955 ], [ -76.993068091993251, -12.110484869137897 ], [ -76.992911009866035, -12.110131434351645 ] ] ] } },
{ "type": "Feature", "properties": { "id": 12, "capa_origen": "12C" }, "geometry": { "type": "Polygon", "coordinates": [ [ [ -76.984546386591404, -12.110471778960628 ], [ -76.985056903504884, -12.103717247490035 ], [ -76.98499145261853, -12.103520894831007 ], [ -76.984808190136775, -12.103389993058322 ], [ -76.983145737623659, -12.103259091285635 ], [ -76.98323736886455, -12.102408229763178 ], [ -76.980344439688182, -12.102185696749611 ], [ -76.980239718270042, -12.103049648449337 ], [ -76.980278988801842, -12.102552221713131 ], [ -76.979415037102115, -12.102486770826788 ], [ -76.978315462211555, -12.110131434351645 ], [ -76.984546386591404, -12.110471778960628 ] ] ] } },
{ "type": "Feature", "properties": { "id": 1, "capa_origen": "1B" }, "geometry": { "type": "Polygon", "coordinates": [ [ [ -77.004158582050522, -12.08415000925476 ], [ -77.000887530160114, -12.083668286648571 ], [ -77.000840911843383, -12.084080081779668 ], [ -77.000374728676107, -12.085066836150411 ], [ -77.000009551861737, -12.087545376656449 ], [ -77.003552543933054, -12.088135875335002 ], [ -77.004158582050522, -12.08415000925476 ] ] ] } },
{ "type": "Feature", "properties": { "id": 1, "capa_origen": "1C" }, "geometry": { "type": "Polygon", "coordinates": [ [ [ -77.000833142123938, -12.083676056368025 ], [ -76.998774166468451, -12.083295340114747 ], [ -76.997305689491512, -12.082362973780187 ], [ -76.996621954179503, -12.086628549760798 ], [ -76.99723576201643, -12.086675168077527 ], [ -76.998043812839711, -12.08713358152535 ], [ -76.998486686848622, -12.0872967456339 ], [ -76.999970703264466, -12.087537606936994 ], [ -77.000343649798296, -12.085004678394773 ], [ -77.000802063246113, -12.084111160657487 ], [ -77.000833142123938, -12.083676056368025 ] ] ] } },
{ "type": "Feature", "properties": { "id": 2, "capa_origen": "2A" }, "geometry": { "type": "Polygon", "coordinates": [ [ [ -76.997248248475259, -12.082355882944745 ], [ -76.996530936507313, -12.081906224696183 ], [ -76.995802918390595, -12.081627864828025 ], [ -76.994196996074308, -12.081285268067218 ], [ -76.9935974517429, -12.081017614347836 ], [ -76.992783784435971, -12.086509868669546 ], [ -76.994946426488582, -12.086766816240154 ], [ -76.995299729398155, -12.086734697793828 ], [ -76.995877861432021, -12.086541987115874 ], [ -76.996338225829362, -12.086499162520772 ], [ -76.996616585697524, -12.0865741055622 ], [ -76.997248248475259, -12.082355882944745 ] ] ] } },
{ "type": "Feature", "properties": { "id": 2, "capa_origen": "2B" }, "geometry": { "type": "Polygon", "coordinates": [ [ [ -76.993019319709035, -12.084432875807146 ], [ -76.993447565660034, -12.081456566447622 ], [ -76.992922964370052, -12.081392329554971 ], [ -76.992805196733528, -12.081659983274351 ], [ -76.989689707439922, -12.081692101720678 ], [ -76.987494946940998, -12.08001123636296 ], [ -76.986263739831841, -12.081617158679251 ], [ -76.988833215537895, -12.083619208500224 ], [ -76.98959335210094, -12.083897568368382 ], [ -76.993019319709035, -12.084432875807146 ] ] ] } },
{ "type": "Feature", "properties": { "id": 2, "capa_origen": "2C" }, "geometry": { "type": "Polygon", "coordinates": [ [ [ -76.992997907411478, -12.084464994253471 ], [ -76.989550527505841, -12.083897568368382 ], [ -76.988940277025648, -12.083694151541652 ], [ -76.986274445980612, -12.081670689423127 ], [ -76.985278774144518, -12.083008958020036 ], [ -76.985214537251863, -12.083308730185744 ], [ -76.985278774144518, -12.083769094583079 ], [ -76.985514309417567, -12.084293695873066 ], [ -76.985824787732057, -12.084721941824078 ], [ -76.986285152129383, -12.085075244733662 ], [ -76.986927521055904, -12.085353604601819 ], [ -76.987730482214047, -12.085664082916301 ], [ -76.988490618777092, -12.085824675147931 ], [ -76.992708841394546, -12.086477750223221 ], [ -76.992997907411478, -12.084464994253471 ] ] ] } },
{ "type": "Feature", "properties": { "id": 3, "capa_origen": "3A" }, "geometry": { "type": "Polygon", "coordinates": [ [ [ -77.003600219395722, -12.088147199891864 ], [ -77.002778204583677, -12.09403388661036 ], [ -77.005085149378772, -12.093967595093261 ], [ -77.008678149605601, -12.094749834995042 ], [ -77.009288031562917, -12.094590735354002 ], [ -77.009433872900544, -12.094418377409541 ], [ -77.009460389507382, -12.09413995303772 ], [ -77.009725555575784, -12.093543329383818 ], [ -77.007564452118316, -12.089552580054388 ], [ -77.007577710421742, -12.088651015421826 ], [ -77.003600219395722, -12.088147199891864 ] ] ] } },
{ "type": "Feature", "properties": { "id": 3, "capa_origen": "3B" }, "geometry": { "type": "Polygon", "coordinates": [ [ [ -76.996639610100203, -12.087311926776403 ], [ -76.996215344390762, -12.089937070853569 ], [ -77.003122920472592, -12.090891668699811 ], [ -77.003533927878621, -12.088226749712385 ], [ -76.996639610100203, -12.087311926776403 ] ] ] } },
{ "type": "Feature", "properties": { "id": 3, "capa_origen": "3C" }, "geometry": { "type": "Polygon", "coordinates": [ [ [ -77.003122920472592, -12.090878410396392 ], [ -76.996215344390762, -12.089884037639889 ], [ -76.995791078681322, -12.092800864392297 ], [ -76.997209717147257, -12.092853897605977 ], [ -76.997885890621689, -12.092999738943599 ], [ -76.999224979267112, -12.093569845990659 ], [ -77.000338676754396, -12.09390130357616 ], [ -77.001836865040858, -12.09408691982404 ], [ -77.002685396459739, -12.094073661520621 ], [ -77.003122920472592, -12.090878410396392 ] ] ] } },
{ "type": "Feature", "properties": { "id": 4, "capa_origen": "4A" }, "geometry": { "type": "Polygon", "coordinates": [ [ [ -76.996533543672825, -12.087325185079822 ], [ -76.990991572843242, -12.086516428571199 ], [ -76.990819214898792, -12.088372591050005 ], [ -76.990938539629568, -12.089870779336469 ], [ -76.991110897574032, -12.090719310755352 ], [ -76.991521904980047, -12.091965591276836 ], [ -76.992529536039967, -12.0937289456317 ], [ -76.993868624685391, -12.093105805370959 ], [ -76.995075130296627, -12.092840639302556 ], [ -76.995751303771044, -12.092787606088876 ], [ -76.996533543672825, -12.087325185079822 ] ] ] } },
{ "type": "Feature", "properties": { "id": 4, "capa_origen": "4B" }, "geometry": { "type": "Polygon", "coordinates": [ [ [ -76.990965056236405, -12.08652968687462 ], [ -76.986205325308617, -12.085933063220718 ], [ -76.984667362111892, -12.086105421165179 ], [ -76.984083996761413, -12.08656946178488 ], [ -76.984455229257165, -12.087219118652461 ], [ -76.984707137022156, -12.088306299532904 ], [ -76.986642849321484, -12.091156834768213 ], [ -76.987875871539543, -12.090334819956171 ], [ -76.988697886351588, -12.089937070853569 ], [ -76.989241476791804, -12.08975145460569 ], [ -76.990858989809055, -12.089433255323607 ], [ -76.990792698291955, -12.087789225699524 ], [ -76.990965056236405, -12.08652968687462 ] ] ] } },
{ "type": "Feature", "properties": { "id": 4, "capa_origen": "4C" }, "geometry": { "type": "Polygon", "coordinates": [ [ [ -76.990872248112467, -12.089433255323607 ], [ -76.990209332941461, -12.089512805144128 ], [ -76.988684628048162, -12.08995032915699 ], [ -76.987637222077979, -12.09046740299037 ], [ -76.986642849321484, -12.091130318161373 ], [ -76.987822838325854, -12.092814122695717 ], [ -76.988114521001108, -12.093370971439359 ], [ -76.988207329125046, -12.0941929862514 ], [ -76.988326653855822, -12.094484668926642 ], [ -76.989082377150766, -12.095465783379725 ], [ -76.989188443578129, -12.095876790785745 ], [ -76.989824842142284, -12.095717691144705 ], [ -76.990421465796189, -12.095412750166044 ], [ -76.992516277736556, -12.093715687328279 ], [ -76.99149538837321, -12.091965591276836 ], [ -76.990925281326156, -12.090096170494609 ], [ -76.990872248112467, -12.089433255323607 ] ] ] } },
{ "type": "Feature", "properties": { "id": 5, "capa_origen": "5A" }, "geometry": { "type": "Polygon", "coordinates": [ [ [ -76.983535819824198, -12.086931246069081 ], [ -76.982079279454737, -12.087797297099574 ], [ -76.981439582670845, -12.088722397063963 ], [ -76.980691629508144, -12.094361570251145 ], [ -76.981478948626773, -12.09444030216301 ], [ -76.981675778406427, -12.094351728762163 ], [ -76.984214882564018, -12.09193072247238 ], [ -76.984579017656387, -12.089145581090227 ], [ -76.983535819824198, -12.086931246069081 ] ] ] } },
{ "type": "Feature", "properties": { "id": 5, "capa_origen": "5B" }, "geometry": { "type": "Polygon", "coordinates": [ [ [ -76.985501415588985, -12.096106176236971 ], [ -76.98584353875664, -12.090738381709784 ], [ -76.984828966604255, -12.088945184417184 ], [ -76.984557627540241, -12.089086752624494 ], [ -76.984640208994506, -12.08929910493546 ], [ -76.984215504372571, -12.092000698224968 ], [ -76.981714466043428, -12.094348370996199 ], [ -76.981549303134898, -12.094430952450464 ], [ -76.980747083293465, -12.094360168346808 ], [ -76.980629109787372, -12.094442749801074 ], [ -76.98049933893067, -12.095610687511385 ], [ -76.983826191802478, -12.096035392133317 ], [ -76.985501415588985, -12.096106176236971 ] ] ] } },
{ "type": "Feature", "properties": { "id": 5, "capa_origen": "5C" }, "geometry": { "type": "Polygon", "coordinates": [ [ [ -76.985849106457039, -12.090739237115473 ], [ -76.98543190339835, -12.09616287687842 ], [ -76.980581917841107, -12.095641373055059 ], [ -76.9793650755866, -12.102542606984192 ], [ -76.980321165929425, -12.102594757366528 ], [ -76.980999120899796, -12.097605704123049 ], [ -76.982667933134536, -12.09774477180928 ], [ -76.983102519654011, -12.097692621426944 ], [ -76.984893016114214, -12.096684380701781 ], [ -76.985536204163026, -12.09656269647633 ], [ -76.987535302152565, -12.096597463397886 ], [ -76.988613076720853, -12.096128109956863 ], [ -76.987848204446593, -12.094094245045758 ], [ -76.986926881025312, -12.093068620859816 ], [ -76.986561828348968, -12.092129913977768 ], [ -76.986214159133397, -12.091504109389735 ], [ -76.986335843358844, -12.091417192085842 ], [ -76.985849106457039, -12.090739237115473 ] ] ] } },
{ "type": "Feature", "properties": { "id": 6, "capa_origen": "6A" }, "geometry": { "type": "Polygon", "coordinates": [ [ [ -77.011272481753522, -12.103723191155156 ], [ -77.012134024985301, -12.100051039675433 ], [ -77.012134024985301, -12.099415474996251 ], [ -77.011893922773169, -12.097847748787599 ], [ -77.01145608932751, -12.09670373236507 ], [ -77.009733002863953, -12.093554156288231 ], [ -77.009365787715979, -12.094528688796311 ], [ -77.008843212313096, -12.094839409306134 ], [ -77.008829088653556, -12.095121882496882 ], [ -77.009281045758755, -12.095587963261616 ], [ -77.009507024311347, -12.096237651600337 ], [ -77.009676508225795, -12.096788474322295 ], [ -77.009803621161637, -12.097791254149449 ], [ -77.009747126523479, -12.098596302743081 ], [ -77.009577642609031, -12.099189496443651 ], [ -77.009281045758755, -12.099881555760984 ], [ -77.00889970695124, -12.100333512866181 ], [ -77.010071970692849, -12.101435158310098 ], [ -77.01032619656452, -12.101858868096219 ], [ -77.010707535372021, -12.10288989524245 ], [ -77.011272481753522, -12.103723191155156 ] ] ] } },
{ "type": "Feature", "properties": { "id": 6, "capa_origen": "6B" }, "geometry": { "type": "Polygon", "coordinates": [ [ [ -77.005976109426996, -12.094189720967412 ], [ -77.005778378193469, -12.096647237726918 ], [ -77.006286829936812, -12.098935270571976 ], [ -77.00635744823451, -12.100884335588137 ], [ -77.007939298102698, -12.100700728014152 ], [ -77.008786717674937, -12.100291141887567 ], [ -77.009238674780136, -12.099853308441908 ], [ -77.009549395289952, -12.099175372784112 ], [ -77.009817744821163, -12.097791254149447 ], [ -77.009577642609031, -12.096618990407844 ], [ -77.00930929307782, -12.0957715708356 ], [ -77.009111561844293, -12.095418479347165 ], [ -77.008829088653542, -12.095192500794568 ], [ -77.008814964994016, -12.094740543689371 ], [ -77.005976109426996, -12.094189720967412 ] ] ] } },
{ "type": "Feature", "properties": { "id": 6, "capa_origen": "6C" }, "geometry": { "type": "Polygon", "coordinates": [ [ [ -77.005976109426996, -12.094175597307874 ], [ -77.005029824237994, -12.093921371436201 ], [ -77.002755915052461, -12.094062608031576 ], [ -77.001781382544394, -12.100785469971376 ], [ -77.002487565521264, -12.100898459247675 ], [ -77.004111786368057, -12.100969077545361 ], [ -77.006315077255891, -12.100912582907212 ], [ -77.006244458958207, -12.098808157636141 ], [ -77.005707759895785, -12.096661361386456 ], [ -77.005976109426996, -12.094175597307874 ] ] ] } },
{ "type": "Feature", "properties": { "id": 7, "capa_origen": "7A" }, "geometry": { "type": "Polygon", "coordinates": [ [ [ -77.002660865217706, -12.094121277558175 ], [ -77.001344565728971, -12.094085049131879 ], [ -77.000336207863739, -12.093934097355646 ], [ -76.999201050506471, -12.093595965376887 ], [ -76.997570771323169, -12.092955929845663 ], [ -76.996266547976518, -12.092792901927332 ], [ -76.995777464221533, -12.092835168424678 ], [ -76.995735197724187, -12.093161224261339 ], [ -76.994799296711548, -12.093245757256028 ], [ -76.994080766256673, -12.093426899387508 ], [ -76.992716162199542, -12.094030706492434 ], [ -76.993378228335899, -12.095052171736269 ], [ -76.993752164813287, -12.094852970666713 ], [ -76.994057430469809, -12.095436148426323 ], [ -76.994303564330139, -12.095413064404873 ], [ -76.995806937948288, -12.095630366196287 ], [ -76.998413004012832, -12.094615790858187 ], [ -76.999079440754528, -12.094551136547425 ], [ -77.000044282007408, -12.094824674016031 ], [ -77.000049255415931, -12.096068026146058 ], [ -77.002411624462979, -12.096391297699867 ], [ -77.002660865217706, -12.094121277558175 ] ] ] } },
{ "type": "Feature", "properties": { "id": 7, "capa_origen": "7B" }, "geometry": { "type": "Polygon", "coordinates": [ [ [ -76.995387092113916, -12.095555378452946 ], [ -76.994614017643229, -12.100569915560106 ], [ -76.99667206724763, -12.100538574703187 ], [ -76.999712130368835, -12.101008687556982 ], [ -77.001435877499432, -12.101060922318515 ], [ -77.001456771404037, -12.10089377108161 ], [ -77.001571687879405, -12.10079974851085 ], [ -77.001780626925537, -12.100841536320077 ], [ -77.002386550159329, -12.096401581589781 ], [ -77.000025538938033, -12.096109066925196 ], [ -77.000035985890349, -12.094876326553019 ], [ -76.999064419325833, -12.094594258840742 ], [ -76.998333132664371, -12.094667387506888 ], [ -76.996191507441523, -12.095586719309868 ], [ -76.995857204967706, -12.095628507119093 ], [ -76.995387092113916, -12.095555378452946 ] ] ] } },
{ "type": "Feature", "properties": { "id": 7, "capa_origen": "7C" }, "geometry": { "type": "Polygon", "coordinates": [ [ [ -76.992681331466514, -12.094051017320799 ], [ -76.992036747725294, -12.094939958187721 ], [ -76.990941818834216, -12.095749905586601 ], [ -76.989231929881029, -12.096079884156516 ], [ -76.989201931829214, -12.098794707845352 ], [ -76.989074440109022, -12.099589656218326 ], [ -76.98911943718673, -12.09991963478824 ], [ -76.989554408937991, -12.101179552964274 ], [ -76.990356856823908, -12.10288194240451 ], [ -76.992786699020542, -12.101037062218172 ], [ -76.993851629859819, -12.100654587057591 ], [ -76.994586582129173, -12.100579591928065 ], [ -76.995336533424421, -12.095569917275741 ], [ -76.994059780317812, -12.095445765200099 ], [ -76.993750332106472, -12.09486093647042 ], [ -76.993360383366436, -12.095074818646845 ], [ -76.992681331466514, -12.094051017320799 ] ] ] } },
{ "type": "Feature", "properties": { "id": 8, "capa_origen": "8A" }, "geometry": { "type": "Polygon", "coordinates": [ [ [ -77.006288438262644, -12.101015257580112 ], [ -77.006308187178917, -12.105160762405468 ], [ -77.009319959633203, -12.10516730973689 ], [ -77.009493463915888, -12.104283419994868 ], [ -77.01022488403369, -12.10443466312825 ], [ -77.010327415110282, -12.104001347268841 ], [ -77.011120810345815, -12.104174673612604 ], [ -77.01122576941377, -12.103751609784352 ], [ -77.010670567517252, -12.102948549898326 ], [ -77.010521852723556, -12.10235369072349 ], [ -77.010293823373203, -12.101877803383623 ], [ -77.009877421950819, -12.101282944208787 ], [ -77.00889590431234, -12.100400569766116 ], [ -77.007954043952182, -12.100747570951436 ], [ -77.006288438262644, -12.101015257580112 ] ] ] } },
{ "type": "Feature", "properties": { "id": 8, "capa_origen": "8B" }, "geometry": { "type": "Polygon", "coordinates": [ [ [ -77.006291616544303, -12.105797067072857 ], [ -77.006252939473981, -12.10085929442997 ], [ -77.004099915893406, -12.10101400271121 ], [ -77.001792184031586, -12.100794832646121 ], [ -77.000979965555089, -12.105809959429626 ], [ -77.006291616544303, -12.105797067072857 ] ] ] } },
{ "type": "Feature", "properties": { "id": 8, "capa_origen": "8C" }, "geometry": { "type": "Polygon", "coordinates": [ [ [ -77.011117628671386, -12.104178645412979 ], [ -77.01035875717541, -12.104015246781621 ], [ -77.010243610488885, -12.104469253717072 ], [ -77.009519831316425, -12.104312434896373 ], [ -77.009330113442431, -12.105197419429965 ], [ -77.006348362578933, -12.105194129524635 ], [ -77.006338824287781, -12.1057664269933 ], [ -77.005947754350871, -12.105795041866735 ], [ -77.005957292642009, -12.106167035221361 ], [ -77.006004984097729, -12.106262418132804 ], [ -77.007893565744297, -12.107454704525843 ], [ -77.00796987207346, -12.107607317184151 ], [ -77.00796987207346, -12.108675605792314 ], [ -77.009171696757633, -12.108790065286046 ], [ -77.009581843276848, -12.108694682374603 ], [ -77.009982451504911, -12.108456225095996 ], [ -77.01046890435326, -12.107922080791914 ], [ -77.011117628671386, -12.104178645412979 ] ] ] } },
{ "type": "Feature", "properties": { "id": 9, "capa_origen": "9A" }, "geometry": { "type": "Polygon", "coordinates": [ [ [ -77.00167235866725, -12.101168806046704 ], [ -77.000877296974508, -12.10098272777819 ], [ -76.999777743569638, -12.101033476396875 ], [ -76.999151843939174, -12.100915062953275 ], [ -76.998001541915627, -12.106903399958229 ], [ -77.000877296974508, -12.107072562020516 ], [ -77.00167235866725, -12.101168806046704 ] ] ] } },
{ "type": "Feature", "properties": { "id": 9, "capa_origen": "9B" }, "geometry": { "type": "Polygon", "coordinates": [ [ [ -76.998018507877816, -12.106881748513393 ], [ -76.999205663232729, -12.100847042125904 ], [ -76.996864329060543, -12.100451323674266 ], [ -76.994676885397311, -12.100528268928752 ], [ -76.994457041813078, -12.1022870176027 ], [ -76.994259182587257, -12.103177384118887 ], [ -76.993599651834529, -12.104364539473803 ], [ -76.994116284257501, -12.104694304850169 ], [ -76.995138556924232, -12.106826787617331 ], [ -76.995501298838235, -12.106727858004422 ], [ -76.998018507877816, -12.106881748513393 ] ] ] } },
{ "type": "Feature", "properties": { "id": 9, "capa_origen": "9C" }, "geometry": { "type": "Polygon", "coordinates": [ [ [ -76.992546472313379, -12.101172918791297 ], [ -76.990000509532436, -12.103075239296166 ], [ -76.992360531211403, -12.10805273956454 ], [ -76.995092435094335, -12.106836970820828 ], [ -76.994377277009804, -12.10512059141794 ], [ -76.994076910614297, -12.104748709213981 ], [ -76.993533390470049, -12.104405433333405 ], [ -76.994134123261048, -12.103375605691671 ], [ -76.994391580171495, -12.10257462863699 ], [ -76.994606127596853, -12.10061509548536 ], [ -76.993848060027247, -12.100658004970432 ], [ -76.99321872091285, -12.100829642910719 ], [ -76.992546472313379, -12.101172918791297 ] ] ] } },
{ "type": "Feature", "properties": { "id": 1, "capa_origen": "SUB-SECT1" }, "geometry": { "type": "Polygon", "coordinates": [ [ [ -77.010068965588331, -12.084953351262062 ], [ -77.004231520613587, -12.084157981630465 ], [ -77.003592384302479, -12.088106423730169 ], [ -77.009919833782405, -12.088802372157815 ], [ -77.010218097394244, -12.086600902641793 ], [ -77.010047661044624, -12.085720314835385 ], [ -77.010068965588331, -12.084953351262062 ] ] ] } }
]
}
