{
"type": "FeatureCollection",
"name": "sectores_san_isidro",
"crs": { "type": "name", "properties": { "name": "urn:ogc:def:crs:OGC:1.3:CRS84" } },
"features": [
{ "type": "Feature", "properties": { "id": 1, "capa_origen": "1-1" }, "geometry": { "type": "Polygon", "coordinates": [ [ [ -77.048609608644654, -12.08539579770129 ], [ -77.047474395327569, -12.08525957210324 ], [ -77.046990037645628, -12.088090037307152 ], [ -77.047610620925624, -12.0882262629052 ], [ -77.047428986794898, -12.089422020932522 ], [ -77.046853812047573, -12.089361476222278 ], [ -77.046535952318791, -12.09161676667887 ], [ -77.043190857077803, -12.091162681352039 ], [ -77.043311946498292, -12.090360463941305 ], [ -77.039210042379253, -12.089800425371548 ], [ -77.038634867631941, -12.092933614126679 ], [ -77.047292761196843, -12.094144508331562 ], [ -77.048609608644654, -12.08539579770129 ] ] ] } },
{ "type": "Feature", "properties": { "id": 1, "capa_origen": "1-2" }, "geometry": { "type": "Polygon", "coordinates": [ [ [ -77.047307897374409, -12.094144508331562 ], [ -77.050683264970516, -12.094598593658391 ], [ -77.053347232221256, -12.092903341771557 ], [ -77.050092954045638, -12.086485602485682 ], [ -77.049532915475879, -12.085683385074949 ], [ -77.048685289532457, -12.084866031486653 ], [ -77.047307897374409, -12.094144508331562 ] ] ] } },
{ "type": "Feature", "properties": { "id": 1, "capa_origen": "1-3" }, "geometry": { "type": "Polygon", "coordinates": [ [ [ -77.05333209604369, -12.092918477949118 ], [ -77.055905246229074, -12.097913416544257 ], [ -77.059522792666158, -12.09605166670425 ], [ -77.058599485834932, -12.08952797417545 ], [ -77.05333209604369, -12.092918477949118 ] ] ] } },
{ "type": "Feature", "properties": { "id": 1, "capa_origen": "1-4" }, "geometry": { "type": "Polygon", "coordinates": [ [ [ -77.053286687511005, -12.092979022659362 ], [ -77.050622720260264, -12.094659138368636 ], [ -77.050198907288561, -12.097353377974498 ], [ -77.050365405241735, -12.097398786507181 ], [ -77.050153498755876, -12.098821587197918 ], [ -77.052408789212464, -12.099078902216455 ], [ -77.052953691604671, -12.099048629861333 ], [ -77.053619683417352, -12.098912404263285 ], [ -77.054527854071011, -12.098564272179381 ], [ -77.055844701518822, -12.097898280366696 ], [ -77.053286687511005, -12.092979022659362 ] ] ] } },
{ "type": "Feature", "properties": { "id": 1, "capa_origen": "1-5" }, "geometry": { "type": "Polygon", "coordinates": [ [ [ -77.050577311727579, -12.094659138368636 ], [ -77.043947665955855, -12.093750967714973 ], [ -77.043417899741215, -12.097580420637913 ], [ -77.043750895647563, -12.099532987543284 ], [ -77.049321008990006, -12.098473455114013 ], [ -77.049654004896354, -12.098791314842794 ], [ -77.050123226400743, -12.098851859553038 ], [ -77.050319996709035, -12.097459331217424 ], [ -77.050123226400743, -12.097413922684741 ], [ -77.050577311727579, -12.094659138368636 ] ] ] } },
{ "type": "Feature", "properties": { "id": 1, "capa_origen": "1-6" }, "geometry": { "type": "Polygon", "coordinates": [ [ [ -77.04390225742317, -12.093796376247656 ], [ -77.038710548519731, -12.093054703547166 ], [ -77.038301871725594, -12.096157619947176 ], [ -77.038347280258265, -12.096490615853519 ], [ -77.038967863538275, -12.097792327123766 ], [ -77.040663115425104, -12.100123298468164 ], [ -77.043766031825115, -12.099563259898407 ], [ -77.043357355030963, -12.097565284460352 ], [ -77.04390225742317, -12.093796376247656 ] ] ] } },
{ "type": "Feature", "properties": { "id": 2, "capa_origen": "2-1" }, "geometry": { "type": "Polygon", "coordinates": [ [ [ -77.055874973873927, -12.097958825076939 ], [ -77.058372443171493, -12.102756993363784 ], [ -77.060022286525651, -12.105496641502327 ], [ -77.060264465366629, -12.105148509418425 ], [ -77.060309873899314, -12.104558198493544 ], [ -77.060748823048584, -12.103983023746226 ], [ -77.060658005983214, -12.103044580737443 ], [ -77.06093045717931, -12.102075865373537 ], [ -77.060900184824192, -12.101652052401828 ], [ -77.060718550693451, -12.101152558542314 ], [ -77.060915321001744, -12.101016332944265 ], [ -77.060097967413455, -12.099381625767675 ], [ -77.059689290619303, -12.096036530526689 ], [ -77.055874973873927, -12.097958825076939 ] ] ] } },
{ "type": "Feature", "properties": { "id": 2, "capa_origen": "2-2" }, "geometry": { "type": "Polygon", "coordinates": [ [ [ -77.058311898461255, -12.102878082784272 ], [ -77.055814429163689, -12.097943688899379 ], [ -77.053649955772457, -12.098972948973529 ], [ -77.052983963959775, -12.099109174571579 ], [ -77.051197895007576, -12.099018357506212 ], [ -77.051243303540261, -12.100441158196949 ], [ -77.051682252689531, -12.103710572550129 ], [ -77.05206065712855, -12.105315007371598 ], [ -77.052529878632939, -12.106344267445747 ], [ -77.053846726080749, -12.107751931958923 ], [ -77.058311898461255, -12.102878082784272 ] ] ] } },
{ "type": "Feature", "properties": { "id": 2, "capa_origen": "2-3" }, "geometry": { "type": "Polygon", "coordinates": [ [ [ -77.051500618558791, -12.103014308382321 ], [ -77.048113661431628, -12.102917349368177 ], [ -77.048086240857444, -12.104192406068623 ], [ -77.048475528725277, -12.104089586524907 ], [ -77.048692460132528, -12.104548411309585 ], [ -77.049881047559765, -12.108054655510141 ], [ -77.052711512763679, -12.107343255164773 ], [ -77.052817466006601, -12.107373527519895 ], [ -77.053256415155872, -12.108372515238923 ], [ -77.053831589903197, -12.107721659603799 ], [ -77.052893146894405, -12.10684376130526 ], [ -77.052317972147094, -12.106011271539403 ], [ -77.051773069754887, -12.104649015558911 ], [ -77.051500618558791, -12.103014308382321 ] ] ] } },
{ "type": "Feature", "properties": { "id": 2, "capa_origen": "2-4" }, "geometry": { "type": "Polygon", "coordinates": [ [ [ -77.048474873503238, -12.104093286798291 ], [ -77.048081825739985, -12.104197982556657 ], [ -77.047504329707621, -12.1048407393347 ], [ -77.047474777671852, -12.105013126210038 ], [ -77.04838222910972, -12.109267647974313 ], [ -77.049324084885868, -12.108305242617593 ], [ -77.049834787138408, -12.107942405068703 ], [ -77.048474873503238, -12.104093286798291 ] ] ] } },
{ "type": "Feature", "properties": { "id": 2, "capa_origen": "2-5" }, "geometry": { "type": "Polygon", "coordinates": [ [ [ -77.048040816618325, -12.102971415298191 ], [ -77.051486362554471, -12.102988141249336 ], [ -77.051034761873524, -12.099007364876497 ], [ -77.049679959830669, -12.098806653462741 ], [ -77.049378892710024, -12.098539038244398 ], [ -77.038122327588511, -12.10061305618655 ], [ -77.038941899194683, -12.104008424269265 ], [ -77.039159336559592, -12.105547211774732 ], [ -77.039711292947416, -12.107370340449688 ], [ -77.039661115093978, -12.107520874010005 ], [ -77.040514138602447, -12.108357171567325 ], [ -77.041149724746006, -12.107621229716884 ], [ -77.041166450697162, -12.107136177133638 ], [ -77.041266806404039, -12.10685183596415 ], [ -77.041601325426967, -12.106567494794662 ], [ -77.041952570401037, -12.106433687185492 ], [ -77.042705238202629, -12.106283153625174 ], [ -77.04335755029733, -12.106517316941222 ], [ -77.046401673405981, -12.105848278895367 ], [ -77.047539038083926, -12.105681019383903 ], [ -77.047405230474752, -12.105262870605245 ], [ -77.047405230474752, -12.104878173728878 ], [ -77.04802409066717, -12.104158957829583 ], [ -77.048040816618325, -12.102971415298191 ] ] ] } },
{ "type": "Feature", "properties": { "id": 2, "capa_origen": "2-6" }, "geometry": { "type": "Polygon", "coordinates": [ [ [ -77.04756257190752, -12.105681529183798 ], [ -77.046404782513079, -12.105866104304651 ], [ -77.043359293019009, -12.106570845675179 ], [ -77.042679720983145, -12.106327542106781 ], [ -77.042008538725497, -12.106428219445428 ], [ -77.041630998705571, -12.106579235453399 ], [ -77.041404474693621, -12.106772200352472 ], [ -77.041186340459888, -12.107200079041721 ], [ -77.041161171125225, -12.107703465734957 ], [ -77.040523547980456, -12.108357868436162 ], [ -77.043124379228829, -12.110899971236998 ], [ -77.043451580579443, -12.110597939221057 ], [ -77.043720053482502, -12.110480482325968 ], [ -77.044424794853029, -12.110379804987321 ], [ -77.046253766505117, -12.110446923213086 ], [ -77.046748763420126, -12.110899971236998 ], [ -77.048292482612709, -12.109406590713734 ], [ -77.04756257190752, -12.105681529183798 ] ] ] } },
{ "type": "Feature", "properties": { "id": 2, "capa_origen": "2-7" }, "geometry": { "type": "Polygon", "coordinates": [ [ [ -77.058371388994004, -12.102831780573069 ], [ -77.053125651019499, -12.108599606213279 ], [ -77.053175373654327, -12.109270861783475 ], [ -77.053598016050373, -12.109693504179525 ], [ -77.054443300842479, -12.109780518790476 ], [ -77.054580038088261, -12.109917256036256 ], [ -77.054903235214653, -12.110016701305916 ], [ -77.055785811982872, -12.110165869210403 ], [ -77.059838206721466, -12.10789105866696 ], [ -77.061528776305664, -12.105541664171271 ], [ -77.061118564568318, -12.105206036386173 ], [ -77.060621338220031, -12.105181175068758 ], [ -77.060385155704594, -12.1050817297991 ], [ -77.060024666602075, -12.105603817464807 ], [ -77.058371388994004, -12.102831780573069 ] ] ] } },
{ "type": "Feature", "properties": { "id": 3, "capa_origen": "3-1" }, "geometry": { "type": "Polygon", "coordinates": [ [ [ -77.03916498162873, -12.089818066279202 ], [ -77.033846345215366, -12.089097316484867 ], [ -77.032665806759127, -12.097087697825511 ], [ -77.033535677200561, -12.097187111590246 ], [ -77.035325124965809, -12.096590629001831 ], [ -77.035349978406998, -12.096478788516505 ], [ -77.035586086098235, -12.096391801472361 ], [ -77.035884327392452, -12.096429081634136 ], [ -77.038295111187296, -12.095758038722169 ], [ -77.03916498162873, -12.089818066279202 ] ] ] } },
{ "type": "Feature", "properties": { "id": 3, "capa_origen": "3-2" }, "geometry": { "type": "Polygon", "coordinates": [ [ [ -77.038270257746106, -12.095795318883946 ], [ -77.035548805936472, -12.096553348840057 ], [ -77.036145288524878, -12.097646900252151 ], [ -77.036281982451399, -12.098056982031688 ], [ -77.036518090142636, -12.100007977164628 ], [ -77.036754197833886, -12.100579606311859 ], [ -77.036866038319218, -12.101486756915074 ], [ -77.036791477995664, -12.102008679179937 ], [ -77.037300973539942, -12.105438454063323 ], [ -77.03692817192217, -12.110409142300115 ], [ -77.038282684466708, -12.109029776314406 ], [ -77.039102848025777, -12.109837513152884 ], [ -77.040519494173253, -12.108420867005398 ], [ -77.039587490128866, -12.107575850005144 ], [ -77.039587490128866, -12.107178194946201 ], [ -77.039127701466953, -12.105686988475163 ], [ -77.038891593775716, -12.103872687268733 ], [ -77.038518792157944, -12.10265486865072 ], [ -77.038493938716769, -12.102095666224081 ], [ -77.038071430216633, -12.10059203303245 ], [ -77.040544347614443, -12.100119817649956 ], [ -77.039264395393474, -12.098454637090629 ], [ -77.038779753290385, -12.097597193369783 ], [ -77.038232977584329, -12.096267534266442 ], [ -77.038270257746106, -12.095795318883946 ] ] ] } },
{ "type": "Feature", "properties": { "id": 3, "capa_origen": "3-3" }, "geometry": { "type": "Polygon", "coordinates": [ [ [ -77.035486672333505, -12.096590629001831 ], [ -77.033523250479973, -12.09721196503143 ], [ -77.032765220523856, -12.097112551266695 ], [ -77.031659242391171, -12.103524739092157 ], [ -77.036890891760393, -12.110371862138338 ], [ -77.037238839936975, -12.105388747180953 ], [ -77.036779051275062, -12.102008679179935 ], [ -77.036853611598616, -12.101499183635664 ], [ -77.036741771113284, -12.10071630023837 ], [ -77.036493236701446, -12.100107390929361 ], [ -77.03625712901021, -12.098069408752277 ], [ -77.035486672333505, -12.096590629001831 ] ] ] } },
{ "type": "Feature", "properties": { "id": 4, "capa_origen": "4-1" }, "geometry": { "type": "Polygon", "coordinates": [ [ [ -77.03356482716751, -12.090636666289978 ], [ -77.032258779242881, -12.090897875874903 ], [ -77.030138372024084, -12.091082259111321 ], [ -77.030322755260499, -12.091865887866099 ], [ -77.029523761236021, -12.091712235169084 ], [ -77.028801593560047, -12.096521564585659 ], [ -77.032704372064231, -12.097090079564614 ], [ -77.03356482716751, -12.090636666289978 ] ] ] } },
{ "type": "Feature", "properties": { "id": 4, "capa_origen": "4-2" }, "geometry": { "type": "Polygon", "coordinates": [ [ [ -77.030153737293773, -12.091758330978189 ], [ -77.029831066630052, -12.090728857908188 ], [ -77.023884707255561, -12.089899133344305 ], [ -77.023469844973619, -12.092511229193564 ], [ -77.023531306052419, -12.092910726205803 ], [ -77.026327785138108, -12.098626606534767 ], [ -77.027434084556617, -12.098119552634616 ], [ -77.027679928871834, -12.098088822095214 ], [ -77.02857111451452, -12.09825784006193 ], [ -77.02947766542691, -12.09166613935998 ], [ -77.030153737293773, -12.091758330978189 ] ] ] } },
{ "type": "Feature", "properties": { "id": 4, "capa_origen": "4-3" }, "geometry": { "type": "Polygon", "coordinates": [ [ [ -77.031628803185114, -12.10352812756955 ], [ -77.032673641524823, -12.097090079564614 ], [ -77.02877086302064, -12.096552295125061 ], [ -77.028494288166016, -12.098303935871035 ], [ -77.02766456360213, -12.098181013713422 ], [ -77.027311162398988, -12.098227109522528 ], [ -77.02631241986839, -12.098672702343871 ], [ -77.027434084556603, -12.101407720350741 ], [ -77.027679928871834, -12.102852055702684 ], [ -77.031628803185114, -12.10352812756955 ] ] ] } },
{ "type": "Feature", "properties": { "id": 4, "capa_origen": "4-4" }, "geometry": { "type": "Polygon", "coordinates": [ [ [ -77.027549552272276, -12.102853076521924 ], [ -77.027536079353212, -12.102233322244636 ], [ -77.027374404324348, -12.101357582504992 ], [ -77.026916325075931, -12.100198911464846 ], [ -77.023413366117339, -12.092627130946683 ], [ -77.023831026608562, -12.089892128375176 ], [ -77.023063070221482, -12.089784345022604 ], [ -77.022901395192633, -12.090754395195749 ], [ -77.021257699065913, -12.09057924724782 ], [ -77.022214276319986, -12.091710972449823 ], [ -77.023063070221482, -12.093166047709541 ], [ -77.022928341030777, -12.093071737276041 ], [ -77.022146911724633, -12.09343550609097 ], [ -77.018859519471192, -12.101923445105994 ], [ -77.027549552272276, -12.102853076521924 ] ] ] } },
{ "type": "Feature", "properties": { "id": 5, "capa_origen": "5-1" }, "geometry": { "type": "Polygon", "coordinates": [ [ [ -77.021176861551481, -12.090579247247822 ], [ -77.01929065288148, -12.090296315947322 ], [ -77.019061613257264, -12.092020849588469 ], [ -77.019438854991265, -12.092977426842543 ], [ -77.019425382072185, -12.093839693663115 ], [ -77.019223288286113, -12.094365137506903 ], [ -77.018899938228401, -12.09424388123526 ], [ -77.018414913141825, -12.096871100454196 ], [ -77.018495750656257, -12.097706421436627 ], [ -77.017256242101681, -12.097935461060842 ], [ -77.017040675396544, -12.098838146638629 ], [ -77.014346091582254, -12.099215388372631 ], [ -77.013268258056527, -12.099686940540131 ], [ -77.0166364878244, -12.106167414613507 ], [ -77.017081094153752, -12.105668916607863 ], [ -77.016676906581608, -12.102246795163708 ], [ -77.018792154875825, -12.101936918025066 ], [ -77.022093020048331, -12.093422033171899 ], [ -77.022941813949842, -12.093031318518827 ], [ -77.022146911724619, -12.091657080773539 ], [ -77.021176861551481, -12.090579247247822 ] ] ] } },
{ "type": "Feature", "properties": { "id": 5, "capa_origen": "5-2" }, "geometry": { "type": "Polygon", "coordinates": [ [ [ -77.019236761205207, -12.090309788866394 ], [ -77.014507766611118, -12.089649615831894 ], [ -77.014103579038974, -12.09119900152511 ], [ -77.012837124646254, -12.09700582964491 ], [ -77.01290448924162, -12.098582161176271 ], [ -77.013227839299333, -12.099673467621059 ], [ -77.014386510339477, -12.099174969615415 ], [ -77.016932892043982, -12.098784254962343 ], [ -77.017229296263551, -12.098097136089699 ], [ -77.017229296263551, -12.097868096465483 ], [ -77.018441858979983, -12.097706421436627 ], [ -77.018401440222775, -12.096844154616052 ], [ -77.018886465309336, -12.094230408316189 ], [ -77.01916939660984, -12.094351664587833 ], [ -77.019411909153135, -12.093799274905903 ], [ -77.019398436234056, -12.093071737276043 ], [ -77.019142450771696, -12.092546293432257 ], [ -77.019048140338199, -12.092061268345685 ], [ -77.019236761205207, -12.090309788866394 ] ] ] } },
{ "type": "Feature", "properties": { "id": 5, "capa_origen": "5-3" }, "geometry": { "type": "Polygon", "coordinates": [ [ [ -77.014440402015751, -12.089649615831894 ], [ -77.007744361237243, -12.088679565658749 ], [ -77.007663523722812, -12.089353211612321 ], [ -77.007771307075387, -12.089811290860752 ], [ -77.011745818201462, -12.097436963055198 ], [ -77.011974857825678, -12.098029771494343 ], [ -77.012567666264829, -12.097989352737127 ], [ -77.012756287131822, -12.097666002679413 ], [ -77.012729341293678, -12.09718097759284 ], [ -77.012891016322541, -12.096291764934124 ], [ -77.01382064773847, -12.091980430831256 ], [ -77.014440402015751, -12.089649615831894 ] ] ] } },
{ "type": "Feature", "properties": { "id": 5, "capa_origen": "5-4" }, "geometry": { "type": "Polygon", "coordinates": [ [ [ -77.016609541986256, -12.106207833370718 ], [ -77.012958380917894, -12.099107605020059 ], [ -77.012621557941102, -12.099013294586559 ], [ -77.012163478692671, -12.099201915453559 ], [ -77.010492836727821, -12.107784164902078 ], [ -77.015006264616758, -12.108484756693795 ], [ -77.016609541986256, -12.106207833370718 ] ] ] } }
]
}
